ORBCOMM FM37            
1 33064U 08031E   24175.46770809  .00001492  00000+0  24023-3 0  9997
2 33064  48.4407 245.2318 0006720 280.8433 198.4161 14.76697086861293
ORBCOMM FM40            
1 33065U 08031F   24175.20562450  .00001908  00000+0  28974-3 0  9992
2 33065  48.4414 235.4135 0008085 288.6286 108.9551 14.78076614861422
VESSELSAT 1             
1 37840U 11058C   24175.12980850  .00000369  00000+0  56708-4 0  9996
2 37840  19.9615 106.2476 0013686 196.8228 163.1723 14.11167698655756
ORBCOMM FM109           
1 40086U 14040A   24175.12968582  .00001007  00000+0  26028-3 0  9995
2 40086  47.0040 270.3780 0000966 132.7825 227.3142 14.56759321528808
ORBCOMM FM107           
1 40087U 14040B   24174.68352253  .00001157  00000+0  29336-3 0  9999
2 40087  47.0059 273.4497 0000393  23.6380 336.4523 14.56769527528697
ORBCOMM FM106           
1 40088U 14040C   24174.91291516  .00001299  00000+0  26053-3 0  9990
2 40088  47.0605 122.2829 0017678 200.8345 159.1827 14.67207187530678
ORBCOMM FM111           
1 40089U 14040D   24174.91233706  .00001386  00000+0  19735-3 0  9994
2 40089  47.0065  18.1458 0033516 275.5652  84.1421 14.82073853536850
ORBCOMM FM104           
1 40090U 14040E   24175.17978205  .00000789  00000+0  21878-3 0  9992
2 40090  47.0064 300.5168 0016705   2.1904 357.9051 14.55245037528409
